<?xml version="1.0" encoding="UTF-8"?>
<ndm xmlns:xsi="http://www.w3.org/2001/XMLSchema-instance" xsi:noNamespaceSchemaLocation="https://sanaregistry.org/r/ndmxml_unqualified/ndmxml-2.0.0-master-2.0.xsd">
<omm id="CCSDS_OMM_VERS" version="2.0">
<header><CREATION_DATE/><ORIGINATOR/></header><body><segment><metadata><OBJECT_NAME>ORBCOMM FM20</OBJECT_NAME><OBJECT_ID>1998-046D</OBJECT_ID><CENTER_NAME>EARTH</CENTER_NAME><REF_FRAME>TEME</REF_FRAME><TIME_SYSTEM>UTC</TIME_SYSTEM><MEAN_ELEMENT_THEORY>SGP4</MEAN_ELEMENT_THEORY></metadata><data><meanElements><EPOCH>2024-08-03T18:45:35.775648</EPOCH><MEAN_MOTION>14.35517695</MEAN_MOTION><ECCENTRICITY>.0002152</ECCENTRICITY><INCLINATION>44.9932</INCLINATION><RA_OF_ASC_NODE>242.7159</RA_OF_ASC_NODE><ARG_OF_PERICENTER>279.1826</ARG_OF_PERICENTER><MEAN_ANOMALY>80.8778</MEAN_ANOMALY></meanElements><tleParameters><EPHEMERIS_TYPE>0</EPHEMERIS_TYPE><CLASSIFICATION_TYPE>U</CLASSIFICATION_TYPE><NORAD_CAT_ID>25416</NORAD_CAT_ID><ELEMENT_SET_NO>999</ELEMENT_SET_NO><REV_AT_EPOCH>35862</REV_AT_EPOCH><BSTAR>.52932E-3</BSTAR><MEAN_MOTION_DOT>.1396E-4</MEAN_MOTION_DOT><MEAN_MOTION_DDOT>0</MEAN_MOTION_DDOT></tleParameters></data></segment></body></omm>
<omm id="CCSDS_OMM_VERS" version="2.0">
<header><CREATION_DATE/><ORIGINATOR/></header><body><segment><metadata><OBJECT_NAME>ORBCOMM FM16</OBJECT_NAME><OBJECT_ID>1998-046E</OBJECT_ID><CENTER_NAME>EARTH</CENTER_NAME><REF_FRAME>TEME</REF_FRAME><TIME_SYSTEM>UTC</TIME_SYSTEM><MEAN_ELEMENT_THEORY>SGP4</MEAN_ELEMENT_THEORY></metadata><data><meanElements><EPOCH>2024-08-04T03:58:22.912608</EPOCH><MEAN_MOTION>14.36609821</MEAN_MOTION><ECCENTRICITY>.0002198</ECCENTRICITY><INCLINATION>44.9921</INCLINATION><RA_OF_ASC_NODE>235.9903</RA_OF_ASC_NODE><ARG_OF_PERICENTER>183.6368</ARG_OF_PERICENTER><MEAN_ANOMALY>176.4464</MEAN_ANOMALY></meanElements><tleParameters><EPHEMERIS_TYPE>0</EPHEMERIS_TYPE><CLASSIFICATION_TYPE>U</CLASSIFICATION_TYPE><NORAD_CAT_ID>25417</NORAD_CAT_ID><ELEMENT_SET_NO>999</ELEMENT_SET_NO><REV_AT_EPOCH>35884</REV_AT_EPOCH><BSTAR>.80804E-3</BSTAR><MEAN_MOTION_DOT>.2257E-4</MEAN_MOTION_DOT><MEAN_MOTION_DDOT>0</MEAN_MOTION_DDOT></tleParameters></data></segment></body></omm>
<omm id="CCSDS_OMM_VERS" version="2.0">
<header><CREATION_DATE/><ORIGINATOR/></header><body><segment><metadata><OBJECT_NAME>ORBCOMM FM15</OBJECT_NAME><OBJECT_ID>1998-046F</OBJECT_ID><CENTER_NAME>EARTH</CENTER_NAME><REF_FRAME>TEME</REF_FRAME><TIME_SYSTEM>UTC</TIME_SYSTEM><MEAN_ELEMENT_THEORY>SGP4</MEAN_ELEMENT_THEORY></metadata><data><meanElements><EPOCH>2024-08-03T18:59:33.124704</EPOCH><MEAN_MOTION>14.36316362</MEAN_MOTION><ECCENTRICITY>.0002086</ECCENTRICITY><INCLINATION>44.9962</INCLINATION><RA_OF_ASC_NODE>242.0282</RA_OF_ASC_NODE><ARG_OF_PERICENTER>190.7417</ARG_OF_PERICENTER><MEAN_ANOMALY>169.3386</MEAN_ANOMALY></meanElements><tleParameters><EPHEMERIS_TYPE>0</EPHEMERIS_TYPE><CLASSIFICATION_TYPE>U</CLASSIFICATION_TYPE><NORAD_CAT_ID>25418</NORAD_CAT_ID><ELEMENT_SET_NO>999</ELEMENT_SET_NO><REV_AT_EPOCH>35857</REV_AT_EPOCH><BSTAR>.72077E-3</BSTAR><MEAN_MOTION_DOT>.1986E-4</MEAN_MOTION_DOT><MEAN_MOTION_DDOT>0</MEAN_MOTION_DDOT></tleParameters></data></segment></body></omm>
<omm id="CCSDS_OMM_VERS" version="2.0">
<header><CREATION_DATE/><ORIGINATOR/></header><body><segment><metadata><OBJECT_NAME>ORBCOMM FM14</OBJECT_NAME><OBJECT_ID>1998-046G</OBJECT_ID><CENTER_NAME>EARTH</CENTER_NAME><REF_FRAME>TEME</REF_FRAME><TIME_SYSTEM>UTC</TIME_SYSTEM><MEAN_ELEMENT_THEORY>SGP4</MEAN_ELEMENT_THEORY></metadata><data><meanElements><EPOCH>2024-08-04T03:39:41.568480</EPOCH><MEAN_MOTION>14.36520772</MEAN_MOTION><ECCENTRICITY>.0001091</ECCENTRICITY><INCLINATION>44.9942</INCLINATION><RA_OF_ASC_NODE>239.3044</RA_OF_ASC_NODE><ARG_OF_PERICENTER>226.6148</ARG_OF_PERICENTER><MEAN_ANOMALY>133.4609</MEAN_ANOMALY></meanElements><tleParameters><EPHEMERIS_TYPE>0</EPHEMERIS_TYPE><CLASSIFICATION_TYPE>U</CLASSIFICATION_TYPE><NORAD_CAT_ID>25419</NORAD_CAT_ID><ELEMENT_SET_NO>999</ELEMENT_SET_NO><REV_AT_EPOCH>35880</REV_AT_EPOCH><BSTAR>.86996E-3</BSTAR><MEAN_MOTION_DOT>.2437E-4</MEAN_MOTION_DOT><MEAN_MOTION_DDOT>0</MEAN_MOTION_DDOT></tleParameters></data></segment></body></omm>
<omm id="CCSDS_OMM_VERS" version="2.0">
<header><CREATION_DATE/><ORIGINATOR/></header><body><segment><metadata><OBJECT_NAME>ORBCOMM FM13</OBJECT_NAME><OBJECT_ID>1998-046H</OBJECT_ID><CENTER_NAME>EARTH</CENTER_NAME><REF_FRAME>TEME</REF_FRAME><TIME_SYSTEM>UTC</TIME_SYSTEM><MEAN_ELEMENT_THEORY>SGP4</MEAN_ELEMENT_THEORY></metadata><data><meanElements><EPOCH>2024-08-03T19:49:23.427840</EPOCH><MEAN_MOTION>14.35730769</MEAN_MOTION><ECCENTRICITY>.000241</ECCENTRICITY><INCLINATION>44.9968</INCLINATION><RA_OF_ASC_NODE>246.2254</RA_OF_ASC_NODE><ARG_OF_PERICENTER>144.4945</ARG_OF_PERICENTER><MEAN_ANOMALY>215.6063</MEAN_ANOMALY></meanElements><tleParameters><EPHEMERIS_TYPE>0</EPHEMERIS_TYPE><CLASSIFICATION_TYPE>U</CLASSIFICATION_TYPE><NORAD_CAT_ID>25420</NORAD_CAT_ID><ELEMENT_SET_NO>999</ELEMENT_SET_NO><REV_AT_EPOCH>35759</REV_AT_EPOCH><BSTAR>.64314E-3</BSTAR><MEAN_MOTION_DOT>.1734E-4</MEAN_MOTION_DOT><MEAN_MOTION_DDOT>0</MEAN_MOTION_DDOT></tleParameters></data></segment></body></omm>
<omm id="CCSDS_OMM_VERS" version="2.0">
<header><CREATION_DATE/><ORIGINATOR/></header><body><segment><metadata><OBJECT_NAME>ORBCOMM FM21</OBJECT_NAME><OBJECT_ID>1998-053A</OBJECT_ID><CENTER_NAME>EARTH</CENTER_NAME><REF_FRAME>TEME</REF_FRAME><TIME_SYSTEM>UTC</TIME_SYSTEM><MEAN_ELEMENT_THEORY>SGP4</MEAN_ELEMENT_THEORY></metadata><data><meanElements><EPOCH>2024-08-03T15:25:45.047136</EPOCH><MEAN_MOTION>14.35628941</MEAN_MOTION><ECCENTRICITY>.0001353</ECCENTRICITY><INCLINATION>45.0097</INCLINATION><RA_OF_ASC_NODE>331.5436</RA_OF_ASC_NODE><ARG_OF_PERICENTER>208.2417</ARG_OF_PERICENTER><MEAN_ANOMALY>151.8358</MEAN_ANOMALY></meanElements><tleParameters><EPHEMERIS_TYPE>0</EPHEMERIS_TYPE><CLASSIFICATION_TYPE>U</CLASSIFICATION_TYPE><NORAD_CAT_ID>25475</NORAD_CAT_ID><ELEMENT_SET_NO>999</ELEMENT_SET_NO><REV_AT_EPOCH>35158</REV_AT_EPOCH><BSTAR>.79488E-3</BSTAR><MEAN_MOTION_DOT>.2172E-4</MEAN_MOTION_DOT><MEAN_MOTION_DDOT>0</MEAN_MOTION_DDOT></tleParameters></data></segment></body></omm>

</ndm>
