ORBCOMM FM20            
1 25416U 98046D   24216.78166407  .00001396  00000+0  52932-3 0  9991
2 25416  44.9932 242.7159 0002152 279.1826  80.8778 14.35517695358624
ORBCOMM FM16            
1 25417U 98046E   24217.16554297  .00002257  00000+0  80804-3 0  9999
2 25417  44.9921 235.9903 0002198 183.6368 176.4464 14.36609821358846
ORBCOMM FM15            
1 25418U 98046F   24216.79135561  .00001986  00000+0  72077-3 0  9998
2 25418  44.9962 242.0282 0002086 190.7417 169.3386 14.36316362358570
ORBCOMM FM14            
1 25419U 98046G   24217.15256445  .00002437  00000+0  86996-3 0  9992
2 25419  44.9942 239.3044 0001091 226.6148 133.4609 14.36520772358807
ORBCOMM FM13            
1 25420U 98046H   24216.82596560  .00001734  00000+0  64314-3 0  9991
2 25420  44.9968 246.2254 0002410 144.4945 215.6063 14.35730769357595
ORBCOMM FM21            
1 25475U 98053A   24216.64288249  .00002172  00000+0  79488-3 0  9996
2 25475  45.0097 331.5436 0001353 208.2417 151.8358 14.35628941351587
